OBJECT_NAME,OBJECT_ID,EPOCH,MEAN_MOTION,ECCENTRICITY,INCLINATION,RA_OF_ASC_NODE,ARG_OF_PERICENTER,MEAN_ANOMALY,EPHEMERIS_TYPE,CLASSIFICATION_TYPE,NORAD_CAT_ID,ELEMENT_SET_NO,REV_AT_EPOCH,BSTAR,MEAN_MOTION_DOT,MEAN_MOTION_DDOT
GLOBALSTAR M069,2007-020C,2026-07-08T06:11:12.065856,12.23472152,.00018455,51.9998,192.4877,194.4416,178.1322,0,U,31573,999,88138,.25387664E-3,-.65E-6,0
GLOBALSTAR M072,2007-020D,2026-07-08T09:10:27.040224,11.91658614,.0001618,51.9943,43.8189,21.8370,149.9387,0,U,31574,999,87750,-.25575874E-4,-.86E-6,0
GLOBALSTAR M066,2007-048C,2026-07-08T14:34:16.986720,12.30388909,.00056585,51.9609,356.4225,88.9731,347.1038,0,U,32265,999,86286,.39530826E-3,-.48E-6,0
GLOBALSTAR M079,2010-054A,2026-07-08T09:09:46.088352,12.62266419,.00010819,52.0048,44.1510,65.9364,105.2202,0,U,37188,999,72522,-.3470509E-4,-.11E-5,0
GLOBALSTAR M074,2010-054B,2026-07-08T07:53:37.616640,12.62261983,.00008565,52.0029,43.5739,83.0604,87.7850,0,U,37189,999,72582,-.1428376E-5,-.104E-5,0
GLOBALSTAR M076,2010-054C,2026-07-08T08:31:47.283168,12.62262116,.00010754,52.0039,43.6983,79.1365,92.0922,0,U,37190,999,72554,.5653146E-5,-.103E-5,0
GLOBALSTAR M077,2010-054D,2026-07-08T07:03:28.341792,11.67547872,.000238,51.9946,125.7223,212.0226,316.1933,0,U,37191,999,72360,.35623511E-4,-.76E-6,0
GLOBALSTAR M075,2010-054E,2026-07-08T05:02:22.386048,12.62267711,.00006352,51.9947,86.1831,53.9411,116.4907,0,U,37192,999,72459,.25159833E-4,-.99E-6,0
GLOBALSTAR M073,2010-054F,2026-07-08T09:55:00.317568,12.62266915,.00011019,52.0077,359.6810,87.1948,285.5062,0,U,37193,999,72661,.55254221E-4,-.94E-6,0
GLOBALSTAR M083,2011-033A,2026-07-08T08:26:10.024224,12.62263904,.00008808,51.9875,308.0692,98.4794,295.0572,0,U,37739,999,69562,.66185587E-4,-.92E-6,0
GLOBALSTAR M088,2011-033B,2026-07-08T07:42:07.857792,12.62269311,.00002059,52.0184,214.6415,156.7359,216.3828,0,U,37740,999,69116,.9813034E-4,-.86E-6,0
GLOBALSTAR M091,2011-033C,2026-07-08T10:43:11.558784,12.62264158,.00002562,51.9970,177.1916,6.8774,158.5900,0,U,37741,999,69196,.86914183E-4,-.88E-6,0
GLOBALSTAR M085,2011-033D,2026-07-08T04:33:20.943072,12.62264293,.0000618,52.0117,129.2835,26.4956,111.3385,0,U,37742,999,69244,.91877093E-4,-.87E-6,0
GLOBALSTAR M081,2011-033E,2026-07-08T05:11:59.701344,12.62265338,.00005155,51.9947,131.6141,45.8634,93.7786,0,U,37743,999,69259,.47298216E-4,-.95E-6,0
GLOBALSTAR M089,2011-033F,2026-07-08T10:06:51.261696,12.62267556,.00006344,51.9932,85.1460,82.8829,88.7338,0,U,37744,999,69346,-.5543462E-5,-.105E-5,0
GLOBALSTAR M084,2011-080A,2026-07-08T07:42:53.672256,12.62267839,.00009787,52.0030,312.9432,119.9561,257.0612,0,U,38040,999,67143,.60551683E-4,-.93E-6,0
GLOBALSTAR M080,2011-080B,2026-07-08T09:00:59.046624,12.62259863,.00003822,51.9971,314.4858,313.7000,79.8485,0,U,38041,999,67156,.15974104E-4,-.101E-5,0
GLOBALSTAR M082,2011-080C,2026-07-08T13:04:55.971264,12.62263998,.00002847,52.0072,269.4921,108.9973,264.5161,0,U,38042,999,67229,.68654843E-4,-.91E-6,0
GLOBALSTAR M092,2011-080D,2026-07-08T12:35:12.361632,12.62267577,.00008342,52.0102,359.9513,94.0026,304.9351,0,U,38043,999,67074,.80885736E-4,-.89E-6,0
GLOBALSTAR M090,2011-080E,2026-07-08T11:49:58.561824,12.62252976,.00004755,52.0118,263.6136,107.3452,268.2543,0,U,38044,999,67240,.83604988E-4,-.89E-6,0
GLOBALSTAR M086,2011-080F,2026-07-08T12:19:59.382336,12.62287714,.00016295,51.9891,263.4440,101.9067,271.6031,0,U,38045,999,67235,.71057432E-4,-.91E-6,0
GLOBALSTAR M097,2013-005A,2026-07-08T05:25:15.447072,12.62271390,.00002568,52.0018,179.2919,36.8234,323.2651,0,U,39072,999,61956,.92192064E-4,-.87E-6,0
GLOBALSTAR M093,2013-005B,2026-07-08T08:34:43.245408,12.62266257,.00004842,52.0079,172.2458,35.6111,324.4788,0,U,39073,999,61953,.11302599E-3,-.84E-6,0
GLOBALSTAR M094,2013-005C,2026-07-07T21:10:20.821152,12.62268482,.00008935,51.9961,87.7892,49.5240,310.5704,0,U,39074,999,62108,-.19810439E-4,-.107E-5,0
GLOBALSTAR M096,2013-005D,2026-07-08T05:05:56.153472,12.62265644,.00005763,52.0058,135.6005,28.4831,331.6068,0,U,39075,999,62004,.61011403E-4,-.93E-6,0
GLOBALSTAR M078,2013-005E,2026-07-08T08:15:15.362784,12.62260046,.00006731,51.9845,219.1832,316.7501,43.3313,0,U,39076,999,61868,.7648501E-4,-.9E-6,0
GLOBALSTAR M095,2013-005F,2026-07-08T10:47:43.360224,12.62264011,.00002629,52.0054,216.4947,2.5818,357.5050,0,U,39077,999,61855,.99949783E-4,-.86E-6,0
GLOBALSTAR M087,2022-064A,2026-07-08T11:06:38.766816,12.62269304,.00009473,52.0014,357.6798,75.9175,284.1797,0,U,52888,999,19382,.14321357E-4,-.101E-5,0
